UNKNOWN                 
1 82139U          25333.63502036  .00002293  00000+0  11608-2 0  9997
2 82139  99.0282  41.3566 0083279  80.5562 280.5013 14.15333810478260
UNKNOWN                 
1 82162U          25333.49373532  .00004028  00000+0  60109-2 0  9992
2 82162 100.4761 257.2289 0056154 272.8516  86.6191 13.53414613502512
UNKNOWN                 
1 82180U          25317.17498021  .00042825  00000+0  55072-2 0  9990
2 82180  65.6558  11.9328 0326753 232.3485 124.7559 14.49940193597461
UNKNOWN                 
1 82189U          25332.00811932  .00000404  00000+0  15032-3 0  9998
2 82189  74.0357  75.3282 0017588 270.7181  89.1957 14.35193498630306
UNKNOWN                 
1 82199U          25330.53216844  .00000721  00000+0  61246-3 0  9996
2 82199  82.9675 246.0653 0038401  80.8027 101.1840 13.85752039607444
UNKNOWN                 
1 82205U          25333.46415618  .00004492  00000+0  12711-2 0  9990
2 82205  63.0070 283.0604 0494621 291.5807  63.3232 13.93173733606153
UNKNOWN                 
1 82223U          25328.62728814  .00002670  00000+0  14579-2 0  9997
2 82223  99.3148 213.8799 0070377  35.4439 325.1378 14.11709132446231
UNKNOWN                 
1 82250U          25319.97629925  .00005148  00000+0  26893-2 0  9993
2 82250  98.9064 225.5370 0071084 269.2980 151.6890 14.13550674612853
UNKNOWN                 
1 82272U          25333.00994087  .00000688  00000+0  22779-2 0  9994
2 82272  67.5236 225.5990 0752965 115.2969 252.7960 12.33531125270243
UNKNOWN                 
1 82295U          25309.55036324  .00001555  00000+0  56719-3 0  9999
2 82295  66.6200 245.9932 0129908 248.5318 110.1886 14.31184947574409
UNKNOWN                 
1 82303U          25333.42639184  .00027161  00000+0  23604-1 0  9991
2 82303  81.9301  14.6328 0027386  43.6751  19.8038 13.85668009512582
UNKNOWN                 
1 82311U          25333.09294900  .00000776  00000+0  11535-2 0  9990
2 82311  99.4413  27.5480 0108105 342.0203  17.7124 13.54514770548479
