CCSDS_OMM_VERS = 2.0
CREATION_DATE  = 
ORIGINATOR     = 

OBJECT_NAME    = UNKNOWN
OBJECT_ID      = 
CENTER_NAME    = EARTH
REF_FRAME      = TEME
TIME_SYSTEM    = UTC
MEAN_ELEMENT_THEORY = SGP/SGP4

EPOCH          = 2025-11-29T15:14:25.759104
MEAN_MOTION    = 14.15333810
ECCENTRICITY   = .0083279
INCLINATION    = 99.0282
RA_OF_ASC_NODE = 41.3566
ARG_OF_PERICENTER = 80.5562
MEAN_ANOMALY   = 280.5013

EPHEMERIS_TYPE = 0
CLASSIFICATION_TYPE = U
NORAD_CAT_ID   = 82139
ELEMENT_SET_NO = 999
REV_AT_EPOCH   = 47826
BSTAR          = .11608E-2
MEAN_MOTION_DOT = .2293E-4
MEAN_MOTION_DDOT = 0

CCSDS_OMM_VERS = 2.0
CREATION_DATE  = 
ORIGINATOR     = 

OBJECT_NAME    = UNKNOWN
OBJECT_ID      = 
CENTER_NAME    = EARTH
REF_FRAME      = TEME
TIME_SYSTEM    = UTC
MEAN_ELEMENT_THEORY = SGP/SGP4

EPOCH          = 2025-11-29T11:50:58.731648
MEAN_MOTION    = 13.53414613
ECCENTRICITY   = .0056154
INCLINATION    = 100.4761
RA_OF_ASC_NODE = 257.2289
ARG_OF_PERICENTER = 272.8516
MEAN_ANOMALY   = 86.6191

EPHEMERIS_TYPE = 0
CLASSIFICATION_TYPE = U
NORAD_CAT_ID   = 82162
ELEMENT_SET_NO = 999
REV_AT_EPOCH   = 50251
BSTAR          = .60109E-2
MEAN_MOTION_DOT = .4028E-4
MEAN_MOTION_DDOT = 0

CCSDS_OMM_VERS = 2.0
CREATION_DATE  = 
ORIGINATOR     = 

OBJECT_NAME    = UNKNOWN
OBJECT_ID      = 
CENTER_NAME    = EARTH
REF_FRAME      = TEME
TIME_SYSTEM    = UTC
MEAN_ELEMENT_THEORY = SGP/SGP4

EPOCH          = 2025-11-13T04:11:58.290144
MEAN_MOTION    = 14.49940193
ECCENTRICITY   = .0326753
INCLINATION    = 65.6558
RA_OF_ASC_NODE = 11.9328
ARG_OF_PERICENTER = 232.3485
MEAN_ANOMALY   = 124.7559

EPHEMERIS_TYPE = 0
CLASSIFICATION_TYPE = U
NORAD_CAT_ID   = 82180
ELEMENT_SET_NO = 999
REV_AT_EPOCH   = 59746
BSTAR          = .55072E-2
MEAN_MOTION_DOT = .42825E-3
MEAN_MOTION_DDOT = 0

CCSDS_OMM_VERS = 2.0
CREATION_DATE  = 
ORIGINATOR     = 

OBJECT_NAME    = UNKNOWN
OBJECT_ID      = 
CENTER_NAME    = EARTH
REF_FRAME      = TEME
TIME_SYSTEM    = UTC
MEAN_ELEMENT_THEORY = SGP/SGP4

EPOCH          = 2025-11-28T00:11:41.509248
MEAN_MOTION    = 14.35193498
ECCENTRICITY   = .0017588
INCLINATION    = 74.0357
RA_OF_ASC_NODE = 75.3282
ARG_OF_PERICENTER = 270.7181
MEAN_ANOMALY   = 89.1957

EPHEMERIS_TYPE = 0
CLASSIFICATION_TYPE = U
NORAD_CAT_ID   = 82189
ELEMENT_SET_NO = 999
REV_AT_EPOCH   = 63030
BSTAR          = .15032E-3
MEAN_MOTION_DOT = .404E-5
MEAN_MOTION_DDOT = 0

CCSDS_OMM_VERS = 2.0
CREATION_DATE  = 
ORIGINATOR     = 

OBJECT_NAME    = UNKNOWN
OBJECT_ID      = 
CENTER_NAME    = EARTH
REF_FRAME      = TEME
TIME_SYSTEM    = UTC
MEAN_ELEMENT_THEORY = SGP/SGP4

EPOCH          = 2025-11-26T12:46:19.353216
MEAN_MOTION    = 13.85752039
ECCENTRICITY   = .0038401
INCLINATION    = 82.9675
RA_OF_ASC_NODE = 246.0653
ARG_OF_PERICENTER = 80.8027
MEAN_ANOMALY   = 101.1840

EPHEMERIS_TYPE = 0
CLASSIFICATION_TYPE = U
NORAD_CAT_ID   = 82199
ELEMENT_SET_NO = 999
REV_AT_EPOCH   = 60744
BSTAR          = .61246E-3
MEAN_MOTION_DOT = .721E-5
MEAN_MOTION_DDOT = 0

CCSDS_OMM_VERS = 2.0
CREATION_DATE  = 
ORIGINATOR     = 

OBJECT_NAME    = UNKNOWN
OBJECT_ID      = 
CENTER_NAME    = EARTH
REF_FRAME      = TEME
TIME_SYSTEM    = UTC
MEAN_ELEMENT_THEORY = SGP/SGP4

EPOCH          = 2025-11-29T11:08:23.093952
MEAN_MOTION    = 13.93173733
ECCENTRICITY   = .0494621
INCLINATION    = 63.0070
RA_OF_ASC_NODE = 283.0604
ARG_OF_PERICENTER = 291.5807
MEAN_ANOMALY   = 63.3232

EPHEMERIS_TYPE = 0
CLASSIFICATION_TYPE = U
NORAD_CAT_ID   = 82205
ELEMENT_SET_NO = 999
REV_AT_EPOCH   = 60615
BSTAR          = .12711E-2
MEAN_MOTION_DOT = .4492E-4
MEAN_MOTION_DDOT = 0

CCSDS_OMM_VERS = 2.0
CREATION_DATE  = 
ORIGINATOR     = 

OBJECT_NAME    = UNKNOWN
OBJECT_ID      = 
CENTER_NAME    = EARTH
REF_FRAME      = TEME
TIME_SYSTEM    = UTC
MEAN_ELEMENT_THEORY = SGP/SGP4

EPOCH          = 2025-11-24T15:03:17.695296
MEAN_MOTION    = 14.11709132
ECCENTRICITY   = .0070377
INCLINATION    = 99.3148
RA_OF_ASC_NODE = 213.8799
ARG_OF_PERICENTER = 35.4439
MEAN_ANOMALY   = 325.1378

EPHEMERIS_TYPE = 0
CLASSIFICATION_TYPE = U
NORAD_CAT_ID   = 82223
ELEMENT_SET_NO = 999
REV_AT_EPOCH   = 44623
BSTAR          = .14579E-2
MEAN_MOTION_DOT = .267E-4
MEAN_MOTION_DDOT = 0

CCSDS_OMM_VERS = 2.0
CREATION_DATE  = 
ORIGINATOR     = 

OBJECT_NAME    = UNKNOWN
OBJECT_ID      = 
CENTER_NAME    = EARTH
REF_FRAME      = TEME
TIME_SYSTEM    = UTC
MEAN_ELEMENT_THEORY = SGP/SGP4

EPOCH          = 2025-11-15T23:25:52.255200
MEAN_MOTION    = 14.13550674
ECCENTRICITY   = .0071084
INCLINATION    = 98.9064
RA_OF_ASC_NODE = 225.5370
ARG_OF_PERICENTER = 269.2980
MEAN_ANOMALY   = 151.6890

EPHEMERIS_TYPE = 0
CLASSIFICATION_TYPE = U
NORAD_CAT_ID   = 82250
ELEMENT_SET_NO = 999
REV_AT_EPOCH   = 61285
BSTAR          = .26893E-2
MEAN_MOTION_DOT = .5148E-4
MEAN_MOTION_DDOT = 0

CCSDS_OMM_VERS = 2.0
CREATION_DATE  = 
ORIGINATOR     = 

OBJECT_NAME    = UNKNOWN
OBJECT_ID      = 
CENTER_NAME    = EARTH
REF_FRAME      = TEME
TIME_SYSTEM    = UTC
MEAN_ELEMENT_THEORY = SGP/SGP4

EPOCH          = 2025-11-29T00:14:18.891168
MEAN_MOTION    = 12.33531125
ECCENTRICITY   = .0752965
INCLINATION    = 67.5236
RA_OF_ASC_NODE = 225.5990
ARG_OF_PERICENTER = 115.2969
MEAN_ANOMALY   = 252.7960

EPHEMERIS_TYPE = 0
CLASSIFICATION_TYPE = U
NORAD_CAT_ID   = 82272
ELEMENT_SET_NO = 999
REV_AT_EPOCH   = 27024
BSTAR          = .22779E-2
MEAN_MOTION_DOT = .688E-5
MEAN_MOTION_DDOT = 0

CCSDS_OMM_VERS = 2.0
CREATION_DATE  = 
ORIGINATOR     = 

OBJECT_NAME    = UNKNOWN
OBJECT_ID      = 
CENTER_NAME    = EARTH
REF_FRAME      = TEME
TIME_SYSTEM    = UTC
MEAN_ELEMENT_THEORY = SGP/SGP4

EPOCH          = 2025-11-05T13:12:31.383936
MEAN_MOTION    = 14.31184947
ECCENTRICITY   = .0129908
INCLINATION    = 66.6200
RA_OF_ASC_NODE = 245.9932
ARG_OF_PERICENTER = 248.5318
MEAN_ANOMALY   = 110.1886

EPHEMERIS_TYPE = 0
CLASSIFICATION_TYPE = U
NORAD_CAT_ID   = 82295
ELEMENT_SET_NO = 999
REV_AT_EPOCH   = 57440
BSTAR          = .56719E-3
MEAN_MOTION_DOT = .1555E-4
MEAN_MOTION_DDOT = 0

CCSDS_OMM_VERS = 2.0
CREATION_DATE  = 
ORIGINATOR     = 

OBJECT_NAME    = UNKNOWN
OBJECT_ID      = 
CENTER_NAME    = EARTH
REF_FRAME      = TEME
TIME_SYSTEM    = UTC
MEAN_ELEMENT_THEORY = SGP/SGP4

EPOCH          = 2025-11-29T10:14:00.254976
MEAN_MOTION    = 13.85668009
ECCENTRICITY   = .0027386
INCLINATION    = 81.9301
RA_OF_ASC_NODE = 14.6328
ARG_OF_PERICENTER = 43.6751
MEAN_ANOMALY   = 19.8038

EPHEMERIS_TYPE = 0
CLASSIFICATION_TYPE = U
NORAD_CAT_ID   = 82303
ELEMENT_SET_NO = 999
REV_AT_EPOCH   = 51258
BSTAR          = .23604E-1
MEAN_MOTION_DOT = .27161E-3
MEAN_MOTION_DDOT = 0

CCSDS_OMM_VERS = 2.0
CREATION_DATE  = 
ORIGINATOR     = 

OBJECT_NAME    = UNKNOWN
OBJECT_ID      = 
CENTER_NAME    = EARTH
REF_FRAME      = TEME
TIME_SYSTEM    = UTC
MEAN_ELEMENT_THEORY = SGP/SGP4

EPOCH          = 2025-11-29T02:13:50.793600
MEAN_MOTION    = 13.54514770
ECCENTRICITY   = .0108105
INCLINATION    = 99.4413
RA_OF_ASC_NODE = 27.5480
ARG_OF_PERICENTER = 342.0203
MEAN_ANOMALY   = 17.7124

EPHEMERIS_TYPE = 0
CLASSIFICATION_TYPE = U
NORAD_CAT_ID   = 82311
ELEMENT_SET_NO = 999
REV_AT_EPOCH   = 54847
BSTAR          = .11535E-2
MEAN_MOTION_DOT = .776E-5
MEAN_MOTION_DDOT = 0

